GORIZONT 1 [-]          
1 11158U 78118A   22338.03837336 -.00000094  00000+0  00000+0 0  9994
2 11158  11.0789 198.6573 3437741 290.5301  36.4091  1.00306370109993
GORIZONT 2 [-]          
1 11440U 79062A   22338.57014025 -.00000016  00000+0  00000+0 0  9992
2 11440   8.8910 299.8847 0003769 296.2059 109.2042  1.00301292125085
GORIZONT 3 [-]          
1 11648U 79105A   22338.53936910 -.00000186  00000+0  00000+0 0  9990
2 11648   9.0532 301.3432 0013139 219.5529 190.0053  1.00345624109549
GORIZONT 4 [-]          
1 11841U 80049A   22338.11091029 -.00000005  00000+0  00000+0 0  9991
2 11841  10.2119 307.2232 0001109 310.4109 259.3438  0.98628705220787
GORIZONT 5 [-]          
1 13092U 82020A   22338.56594160  .00000022  00000+0  00000+0 0  9993
2 13092  11.2150 312.5428 0033950 216.1133 169.5620  0.98530297108886
GORIZONT 6 [-]          
1 13624U 82103A   22338.58181060  .00000118  00000+0  00000+0 0  9995
2 13624  10.1409 312.6003 0001401 249.8270 278.6118  1.00320080108002
GORIZONT 7 [-]          
1 14160U 83066A   22338.31374872 -.00000159  00000+0  00000+0 0  9992
2 14160  11.8234 322.0386 0009799 318.6271 217.7260  0.98348673142054
GORIZONT 8 [-]          
1 14532U 83118A   22338.31175499 -.00000216  00000+0  00000+0 0  9991
2 14532  12.0025 323.9063 0029874 152.8656 236.7923  0.98271872107820
GORIZONT 9 [-]          
1 14940U 84041A   22338.56829451 -.00000034  00000+0  00000+0 0  9999
2 14940  11.1917 321.9171 0004620 217.5054 167.1133  1.00224498109002
GORIZONT 10 [-]         
1 15144U 84078A   22338.57253661  .00000088  00000+0  00000+0 0  9999
2 15144  11.2902 322.9433 0000387 175.0221 333.0116  1.00250678141635
GORIZONT 11 [-]         
1 15484U 85007A   22338.34748156 -.00000378  00000+0  00000+0 0  9995
2 15484  11.4767 324.9355 0003053 160.5784 194.0720  1.00348298139688
GORIZONT 12 [-]         
1 16769U 86044A   22338.14702095  .00000111  00000+0  00000+0 0  9998
2 16769  12.1130 330.3338 0001723 242.6560 319.3253  1.00229908134319
GORIZONT 13 [-]         
1 17083U 86090A   22338.40118630 -.00000147  00000+0  00000+0 0  9994
2 17083  14.0085 337.5454 0013494 339.8930  29.1564  0.96726667106166
GORIZONT 14 [-]         
1 17969U 87040A   22338.21778010 -.00000148  00000+0  00000+0 0  9997
2 17969  12.9253 328.9085 0031231 177.6198 196.1223  0.97659722107256
GORIZONT 15 [-]         
1 19017U 88028A   22338.18465743 -.00000127  00000+0  00000+0 0  9999
2 19017  14.3079 340.3515 0036979 160.4364  23.3868  0.97828676106878
GORIZONT 16 [-]         
1 19397U 88071A   22338.32181779 -.00000059  00000+0  00000+0 0  9992
2 19397  13.1581 339.0276 0013382  64.3212 320.9097  0.99988990125330
GORIZONT 17 [-]         
1 19765U 89004A   22338.57133925  .00000017  00000+0  00000+0 0  9998
2 19765  13.7152 342.3872 0022826 136.2468 239.2014  0.99063151122794
GORIZONT 18 [-]         
1 20107U 89052A   22338.54453647  .00000070  00000+0  00000+0 0  9995
2 20107  13.7639 343.6432 0033781 320.1398 188.0299  0.99399548121584
GORIZONT 19 [-]         
1 20263U 89081A   22338.57236947 -.00000182  00000+0  00000+0 0  9990
2 20263  13.4920 342.8192 0004030 212.4241 164.9231  1.00354858 34407
GORIZONT 20 [-]         
1 20659U 90054A   22338.57711963 -.00000245  00000+0  00000+0 0  9997
2 20659  13.9379 345.6361 0006830 170.6048 215.3950  1.00237315118756
GORIZONT 21 [-]         
1 20923U 90094A   22338.38409083 -.00000305  00000+0  00000+0 0  9998
2 20923  13.9546 346.4064 0004990 206.4077 323.6688  1.00352597117503
GORIZONT 22 [-]         
1 20953U 90102A   22338.42192043 -.00000323  00000+0  00000+0 0  9991
2 20953  13.9144 346.7759 0002382  26.3128 348.8689  1.00243040117437
GORIZONT 23 [-]         
1 21533U 91046A   22338.22065653 -.00000052  00000+0  00000+0 0  9997
2 21533  14.6916 350.9429 0003714 307.0497  59.9967  0.98909140 33922
GORIZONT 24 [-]         
1 21759U 91074A   22338.41869534 -.00000155  00000+0  00000+0 0  9993
2 21759  14.8536 352.8558 0018120 226.9579 122.9337  0.98443609112241
GORIZONT 25 [-]         
1 21922U 92017A   22338.15266788  .00000082  00000+0  00000+0 0  9994
2 21922  14.3941 352.1723 0028520  85.1811 274.8572  0.99847165112046
GORIZONT 26 [-]         
1 22041U 92043A   22338.15319087  .00000056  00000+0  00000+0 0  9998
2 22041  14.5726 354.1886 0031397 237.2803 122.9889  0.99241800110665
GORIZONT 27 [-]         
1 22245U 92082A   22338.19494108  .00000119  00000+0  00000+0 0  9999
2 22245  14.4886 353.7631 0011481  11.1914 172.0111  1.00168051114188
GORIZONT 28 [-]         
1 22880U 93069A   22338.30396476 -.00000115  00000+0  00000+0 0  9999
2 22880  14.6443 357.6357 0034206 135.7291  52.2196  0.99657546106264
GORIZONT 29 [-]         
1 22907U 93072A   22338.38714161 -.00000288  00000+0  00000+0 0  9997
2 22907  14.5538 357.0850 0009427 345.5292 190.3657  1.00150935106246
GORIZONT 30 [-]         
1 23108U 94030A   22338.42340223 -.00000283  00000+0  00000+0 0  9990
2 23108  14.5698 357.9854 0001935 186.7371 183.7526  1.00253573104521
GORIZONT 31 [-]         
1 23775U 96005A   22338.51303280 -.00000321  00000+0  00000+0 0  9999
2 23775  14.5075   4.2216 0018849 203.0527 160.8145  0.99888344 98164
GORIZONT 32 [-]         
1 23880U 96034A   22338.33158501  .00000034  00000+0  00000+0 0  9992
2 23880  14.4593   4.7344 0007994 357.9218  13.5264  1.00205074 97102
GORIZONT 33 [-]         
1 26372U 00029A   22338.39088971 -.00000177  00000+0  00000+0 0  9998
2 26372  13.2179  15.9803 0002656 107.0502  70.1600  1.00297045 82489
